{"type": "FeatureCollection", "features": [{"type": "Feature", "properties": {"name": "Norsk kontinentalsokkel"}, "geometry": {"type": "Polygon", "coordinates": [[[-2.6384407790591373, 79.0002212040333], [-2.3593482405870887, 79.22951801037884], [-1.6368847016524362, 79.88241757860152], [0.2705760761833123, 80.63481274052559], [2.203628056082269, 81.28297587725538], [4.010835558003646, 81.8585625627148], [5.854007030876715, 82.34818925271787], [6.737209139615055, 83.00057227938491], [15.995277033266454, 83.00067702208284], [15.995766560075634, 82.0205905839706], [16.015766663052265, 82.00060010454104], [34.999576986629215, 82.00067699686133], [35.00509007264846, 79.28783833914733], [37.99997745705587, 78.62488187477814], [37.99847484436236, 75.7993142996541], [37.00166184801298, 75.19141147836423], [36.999978466993255, 73.68631224284042], [35.660401345483805, 72.88903616923629], [34.317909578357465, 72.00057106019487], [33.09857594477878, 71.10457626221749], [32.07308701380865, 70.27472576412457], [31.105207424349324, 69.97949533885064], [30.817749938199427, 69.79485571783502], [31.06431562249101, 70.28918840845543], [31.146955869118774, 70.36847861608855], [31.13893721417575, 70.39598134543536], [30.09643532415079, 70.70656221673374], [29.242506335364713, 70.85406913226204], [28.199269269330973, 71.09965995104041], [26.553481426415345, 71.1654848292358], [25.40852531384671, 71.16881301880004], [23.976206746444888, 71.09764566045968], [21.97927450956859, 70.67424570476099], [19.10730241809208, 70.30776411168942], [18.643524467057034, 70.22448269409787], [17.999779328270815, 69.91456842157649], [17.48188804380065, 69.60103052009978], [16.988932216272076, 69.499971524079], [16.0396358710287, 69.33885883417186], [15.157478927296912, 69.10129081079553], [14.31493581708126, 68.74493288393629], [13.672490278488429, 68.32662101671995], [13.059633489765531, 68.14371734473082], [12.779831581005357, 67.94134287944802], [12.581486558632418, 67.7031202491795], [11.86428322901764, 67.48515187290418], [11.827102527485819, 67.43533768875693], [11.84237966172247, 67.40247615934805], [12.432660793457039, 66.77730758101747], [12.029053790299889, 66.59070272233235], [11.551813817125714, 66.12688800787018], [11.260485420446729, 65.64131049612959], [10.523329156334114, 64.91590154225271], [10.439484097101053, 64.78091777073196], [9.333481723178458, 64.2498852846575], [8.453034182912297, 63.911330090815895], [7.156185903792439, 63.117729909714036], [6.2584911153077485, 62.81456654618329], [5.263737504948301, 62.335936585924024], [5.0536536037572946, 62.18572223930042], [4.568274444671585, 61.652510944385966], [4.499901368512342, 61.07942051396107], [4.887775883995612, 60.31319062208995], [5.0726725755938, 59.64300381879443], [4.85948647243506, 59.29202500473567], [4.860220233610832, 59.27013584511032], [5.174883508286163, 59.141469529654756], [5.364382064912503, 59.00798440946927], [5.537981946015949, 58.66999163327881], [5.661698488106604, 58.55249944588743], [5.863688194138977, 58.429034739268246], [6.626938278505967, 58.069811061139404], [6.9986112670078615, 57.985185430014525], [7.616992298864647, 57.96199596820632], [8.253275602110863, 58.10881842196938], [8.65885675198593, 58.307886866011216], [9.550739347153678, 58.83311670336845], [9.935220099615842, 58.93524596161002], [10.231001008422599, 58.9768774397365], [10.917754442363622, 58.94229074462096], [10.644950789849819, 58.892544619417926], [10.593078368857665, 58.761018170759215], [10.148888378555752, 58.51294556688559], [10.028679831270127, 58.26092090489845], [9.383226388462306, 57.98831790117374], [8.886989755994543, 57.696126093815835], [7.981108654710524, 57.497556568212744], [5.031803390261693, 56.59103171253898], [3.2486048941062515, 56.08602428442159], [2.6119235967842145, 56.59431901652456], [1.9638483623217535, 57.90349574975133], [1.4817270720157314, 58.42940666854652], [1.7100204463509785, 59.28939134232367], [2.0737427722447834, 59.89738715563195], [1.7870590845586656, 61.35779228089731], [1.3683102644896148, 62.00496748619287], [1.0011848431868713, 62.500547958723395], [0.4462267345428752, 63.07528336268917], [-0.4906775859657604, 63.88711018831646], [-0.4902771890799343, 63.99957710822346], [1.311801678793926, 63.99963095384117], [1.3294393790571055, 64.01020230541262], [1.332022987111379, 66.99977701135617], [2.986111690362572, 67.00132230001353], [2.9984582856489794, 67.01979885714285], [2.9985229875923327, 67.74977701109404], [4.980360342806592, 67.74989630546655], [4.998303694533445, 67.76783965719339], [4.998422990479571, 67.99987700952042], [7.999304294584204, 68.00025692839873], [9.998752789712112, 68.5833596868694], [15.985002210682511, 69.99688327953996], [15.998568775685051, 70.01581763788838], [15.997835749483206, 71.98580258342537], [15.9786959996, 72.0], [14.998722972296331, 72.00002298056718], [14.997807196910703, 74.48020698206682], [14.981707935405993, 74.49981570090624], [5.800066009461981, 74.50010000506632], [4.792344075197075, 74.78924381727077], [3.9970223226786104, 74.9696178326781], [3.9960049607610255, 78.98030466053513], [3.983657275069092, 78.99877785045065], [-2.6384407790591373, 79.0002212040333]], [[11.133157576370138, 79.1115087583816], [10.469561239832014, 78.89833963308944], [10.459474034558923, 78.87828091416226], [10.489080170158049, 78.79056015392078], [11.048524747621876, 78.45063447355251], [11.951173670689435, 78.20418950583657], [12.97899522763906, 78.19726296743775], [13.550871898234082, 78.05108217528449], [13.524280251014691, 77.88789503653352], [13.715382569453517, 77.73658608915377], [13.865316791371047, 77.41868769543231], [14.221345123889078, 77.20967079847021], [14.897104173185792, 77.05702819414846], [15.891669731750422, 76.71811254469586], [16.40818518429269, 76.5008531118444], [16.623557169542515, 76.4444054517646], [16.898615144833656, 76.5004], [18.97969116643797, 76.50049632180234], [18.99773065760063, 76.52040266648888], [18.99762299721716, 77.50037700584873], [20.508493619587544, 77.5004], [20.861993535195083, 77.44247592455926], [21.271784824654727, 77.28710579740327], [21.45228593608159, 77.14908471551294], [21.67526612012622, 76.86624817017189], [21.79066409884529, 76.86837364257329], [22.544030552498878, 77.0412463838891], [22.918845254526175, 77.15477130145152], [23.265685910026118, 77.2905527458574], [23.676505317548056, 77.50047790974963], [24.985747821253042, 77.50202313669168], [24.998092395438363, 77.52050760167182], [24.998023775781494, 77.76358014196458], [25.13250616121951, 77.78799381961623], [25.147044537070478, 77.80669404837805], [25.131667631380893, 77.82669580214558], [24.99802198913307, 77.84501919945568], [24.99782241530599, 79.32148015353643], [25.38361191225551, 79.36863159963593], [25.77999586235971, 79.45935327835697], [28.24863506117927, 80.07046016293336], [28.26425553464808, 80.09076070742216], [28.24630872448502, 80.11129226804846], [27.97810080834792, 80.14483543454986], [26.997821767008585, 80.18832082996342], [26.997609508230504, 80.4825663176503], [26.979666347550705, 80.50050373376143], [25.958101510348115, 80.50061782091913], [25.006292891120566, 80.66295519580282], [22.82520071704512, 80.50802490371568], [20.34305219887902, 80.82854817413357], [19.74369633179426, 80.6284146198866], [18.991098513715723, 80.50061762690656], [16.012596142343533, 80.50011602719886], [15.996499691395382, 80.48049114727714], [15.996677416774679, 80.05972222084885], [14.474511234619953, 80.03570240684203], [13.76992544503586, 79.88058665066875], [12.39168240696378, 79.84181638323078], [11.646202347836695, 79.90768217007148], [10.577555093596171, 79.76651887333763], [10.57207908836248, 79.7446553450651], [10.652510416468898, 79.53102965407815], [11.133157576370138, 79.1115087583816]], [[18.856816718275947, 74.5115835301424], [18.7837336001682, 74.48176823301104], [18.780765456664966, 74.45386275439857], [19.054867708537685, 74.33537844075894], [19.178854298226877, 74.35901669402419], [19.257457281985605, 74.44876776347809], [19.249035607080742, 74.46792993708563], [19.158745620296823, 74.51134642350932], [18.856816718275947, 74.5115835301424]]]}}]}